GLOBALSTAR M023         
1 25621U 99004A   25346.11039728 -.00000083  00000+0  11807-3 0  9990
2 25621  52.0098 231.6581 0010042 155.7345 353.4236 12.62510162238202
GLOBALSTAR M040         
1 25622U 99004B   25346.15802848 -.00000074  00000+0  16544-3 0  9999
2 25622  51.9910 235.9296 0001841  64.1781 100.6153 12.62025163237726
GLOBALSTAR M036         
1 25623U 99004C   25345.68419390 -.00000063  00000+0  28749-3 0  9991
2 25623  51.9945 132.4681 0010883  35.4738 337.4431 11.86618325200051
GLOBALSTAR M038         
1 25624U 99004D   25346.19963172 -.00000066  00000+0  23886-3 0  9991
2 25624  51.9986 278.9120 0002509  60.1341  80.8815 12.32537264224327
GLOBALSTAR M022         
1 25649U 99012A   25345.97962877 -.00000090  00000+0 -40699-4 0  9993
2 25649  52.0008 167.5769 0003254 142.8538  24.2560 12.02508015197762
GLOBALSTAR M041         
1 25650U 99012B   25346.21335601 -.00000078  00000+0  93558-4 0  9999
2 25650  52.0038  53.8195 0000682 317.3667  42.7117 11.96681340199592
GLOBALSTAR M046         
1 25651U 99012C   25345.36358762 -.00000211  00000+0 -13434-2 0  9991
2 25651  52.0043 112.9168 0001481 218.2313 158.6368 12.09417067205109
GLOBALSTAR M037         
1 25652U 99012D   25346.30439709 -.00000036  00000+0  37794-3 0  9998
2 25652  52.0025   1.6183 0001883 215.6434 157.2651 12.62458264233779
